{
"type": "FeatureCollection",
"name": "monteria_limite_municipal",
"crs": { "type": "name", "properties": { "name": "urn:ogc:def:crs:OGC:1.3:CRS84" } },
"features": [
{ "type": "Feature", "properties": { "bbox_west": -75.9171153, "bbox_south": 8.7127269, "bbox_east": -75.837121, "bbox_north": 8.8117329, "place_id": 307583954, "osm_type": "relation", "osm_id": 14702718, "lat": 8.7509361, "lon": -75.8786806, "class": "boundary", "type": "administrative", "place_rank": 14, "importance": 0.48683479237167826, "addresstype": "city", "name": "Montería", "display_name": "Montería, Centro, Córdoba, RAP Caribe, Colombia" }, "geometry": { "type": "MultiPolygon", "coordinates": [ [ [ [ -75.9171153, 8.7531405 ], [ -75.9131026, 8.7490686 ], [ -75.9106457, 8.7465554 ], [ -75.9075666, 8.7435757 ], [ -75.9059143, 8.7422078 ], [ -75.9065581, 8.7409671 ], [ -75.9068156, 8.7398006 ], [ -75.9021378, 8.7410519 ], [ -75.902129, 8.7410397 ], [ -75.9009576, 8.7373192 ], [ -75.8995199, 8.7323988 ], [ -75.8990479, 8.7307232 ], [ -75.8986402, 8.7304475 ], [ -75.8979321, 8.730596 ], [ -75.8975887, 8.7308611 ], [ -75.8972025, 8.7308929 ], [ -75.8969557, 8.7308929 ], [ -75.8966875, 8.7309883 ], [ -75.8965159, 8.7312429 ], [ -75.8965373, 8.7314337 ], [ -75.89643, 8.7316989 ], [ -75.8961296, 8.7318685 ], [ -75.8960672, 8.7318947 ], [ -75.8959258, 8.7319534 ], [ -75.8957648, 8.7320912 ], [ -75.8956853, 8.7322289 ], [ -75.895679, 8.7322397 ], [ -75.8956683, 8.7324412 ], [ -75.8956468, 8.7327487 ], [ -75.8954537, 8.7326214 ], [ -75.8953142, 8.7325578 ], [ -75.8947671, 8.732526 ], [ -75.8943808, 8.7326426 ], [ -75.894354, 8.7324783 ], [ -75.8944291, 8.7322503 ], [ -75.8944935, 8.7321601 ], [ -75.8946544, 8.7320594 ], [ -75.8948475, 8.7319427 ], [ -75.8949709, 8.7318685 ], [ -75.8950728, 8.731667 ], [ -75.8951426, 8.7315292 ], [ -75.8951157, 8.7313489 ], [ -75.895105, 8.7312004 ], [ -75.8951747, 8.7309247 ], [ -75.895105, 8.7307338 ], [ -75.8950406, 8.7305217 ], [ -75.8952177, 8.7302991 ], [ -75.8953518, 8.7301135 ], [ -75.8953893, 8.730018 ], [ -75.8953464, 8.7297582 ], [ -75.8952767, 8.7296946 ], [ -75.8951318, 8.7294666 ], [ -75.8951426, 8.7293234 ], [ -75.8952338, 8.7292227 ], [ -75.8954269, 8.7291591 ], [ -75.8956951, 8.729175 ], [ -75.8959043, 8.7292386 ], [ -75.8960223, 8.7292174 ], [ -75.8961672, 8.729106 ], [ -75.8963871, 8.7290583 ], [ -75.8965373, 8.7290053 ], [ -75.8968002, 8.7289152 ], [ -75.8970791, 8.7288462 ], [ -75.8972186, 8.7287349 ], [ -75.8973849, 8.7284963 ], [ -75.8974439, 8.7283372 ], [ -75.8974546, 8.7281728 ], [ -75.8975136, 8.7280297 ], [ -75.8976477, 8.7279501 ], [ -75.8977765, 8.7279024 ], [ -75.8979482, 8.7279554 ], [ -75.8980984, 8.72786 ], [ -75.8981788, 8.7277327 ], [ -75.8983988, 8.7277115 ], [ -75.8985758, 8.7277433 ], [ -75.8987206, 8.7277062 ], [ -75.8987528, 8.727579 ], [ -75.8987367, 8.7274252 ], [ -75.8984578, 8.7272555 ], [ -75.897975, 8.7271813 ], [ -75.8974064, 8.7270222 ], [ -75.8968485, 8.7271601 ], [ -75.8964193, 8.7272874 ], [ -75.8958399, 8.7270753 ], [ -75.8953571, 8.7268632 ], [ -75.8952499, 8.7245832 ], [ -75.8934045, 8.7233106 ], [ -75.8931041, 8.7235333 ], [ -75.8929539, 8.7233848 ], [ -75.8922136, 8.723984 ], [ -75.8918917, 8.7236234 ], [ -75.8913285, 8.7230773 ], [ -75.8907974, 8.7226849 ], [ -75.8905453, 8.722441 ], [ -75.890218, 8.7219903 ], [ -75.8899498, 8.7214495 ], [ -75.8897942, 8.7209457 ], [ -75.8896869, 8.7204526 ], [ -75.8896816, 8.7199966 ], [ -75.8897781, 8.7192172 ], [ -75.8898318, 8.7186074 ], [ -75.8897996, 8.7181885 ], [ -75.8896977, 8.7174514 ], [ -75.8896118, 8.7169795 ], [ -75.8913499, 8.7170591 ], [ -75.8943111, 8.7171439 ], [ -75.8977543, 8.7173035 ], [ -75.8977117, 8.7148035 ], [ -75.8969826, 8.7148161 ], [ -75.8966768, 8.7149964 ], [ -75.8963013, 8.7151555 ], [ -75.895797, 8.7152668 ], [ -75.8950514, 8.7153252 ], [ -75.8948207, 8.7142116 ], [ -75.893265, 8.7134746 ], [ -75.8912909, 8.7127375 ], [ -75.8908618, 8.7133526 ], [ -75.8903682, 8.7141904 ], [ -75.8898532, 8.7149699 ], [ -75.8877826, 8.7139412 ], [ -75.8865166, 8.7127269 ], [ -75.8847892, 8.7143707 ], [ -75.882563, 8.7163697 ], [ -75.8817476, 8.7172659 ], [ -75.881061, 8.7180983 ], [ -75.8807015, 8.7187664 ], [ -75.879398, 8.7208821 ], [ -75.8791566, 8.7212268 ], [ -75.8790278, 8.7213858 ], [ -75.8786953, 8.7214866 ], [ -75.8782393, 8.7216085 ], [ -75.8779979, 8.721582 ], [ -75.8778048, 8.7215343 ], [ -75.8776063, 8.7215661 ], [ -75.876984, 8.7218949 ], [ -75.8765924, 8.7220805 ], [ -75.8763135, 8.7216244 ], [ -75.8757663, 8.7202352 ], [ -75.8751977, 8.7192172 ], [ -75.8712086, 8.7189921 ], [ -75.8697474, 8.7189096 ], [ -75.8697045, 8.7210942 ], [ -75.866518, 8.7231197 ], [ -75.8647585, 8.7242332 ], [ -75.8638144, 8.7245089 ], [ -75.8625484, 8.7250604 ], [ -75.8616364, 8.7255482 ], [ -75.8608532, 8.72593 ], [ -75.859952, 8.726439 ], [ -75.8591902, 8.7269268 ], [ -75.860349, 8.7277964 ], [ -75.8590722, 8.7296734 ], [ -75.857935, 8.7308505 ], [ -75.8553386, 8.7327699 ], [ -75.8556175, 8.7331198 ], [ -75.8541155, 8.7352301 ], [ -75.8531284, 8.7365345 ], [ -75.8522809, 8.7379342 ], [ -75.8519912, 8.7392704 ], [ -75.8519912, 8.7403944 ], [ -75.8524418, 8.7417942 ], [ -75.8530104, 8.7426319 ], [ -75.8556497, 8.7456965 ], [ -75.8550918, 8.7482521 ], [ -75.8559179, 8.7489414 ], [ -75.8579564, 8.750182 ], [ -75.8595014, 8.7510409 ], [ -75.8596623, 8.7494716 ], [ -75.8625484, 8.7503517 ], [ -75.862248, 8.7506804 ], [ -75.8619368, 8.751094 ], [ -75.861615, 8.7513909 ], [ -75.8609498, 8.751762 ], [ -75.8605313, 8.7521543 ], [ -75.8602417, 8.7526633 ], [ -75.8600271, 8.7531299 ], [ -75.8596301, 8.7536071 ], [ -75.8590937, 8.7540312 ], [ -75.8582783, 8.7544766 ], [ -75.8572912, 8.755028 ], [ -75.8621299, 8.7575941 ], [ -75.859952, 8.7596724 ], [ -75.8595228, 8.7601178 ], [ -75.8594573, 8.7602442 ], [ -75.8593083, 8.7605313 ], [ -75.858932, 8.7616463 ], [ -75.8588684, 8.7618674 ], [ -75.85742, 8.7661088 ], [ -75.8566368, 8.7684098 ], [ -75.8564866, 8.7687067 ], [ -75.856154, 8.7690248 ], [ -75.8533108, 8.7715166 ], [ -75.8510767, 8.7734536 ], [ -75.8507543, 8.773733 ], [ -75.8496416, 8.7746976 ], [ -75.8455861, 8.7785677 ], [ -75.841713, 8.7820032 ], [ -75.837121, 8.7859687 ], [ -75.8389235, 8.787135 ], [ -75.8432579, 8.7899766 ], [ -75.8438802, 8.7893298 ], [ -75.8454641, 8.7903689 ], [ -75.8464337, 8.791005 ], [ -75.8419168, 8.7930938 ], [ -75.841552, 8.7938466 ], [ -75.838151, 8.7940268 ], [ -75.839417, 8.7959141 ], [ -75.841316, 8.7987821 ], [ -75.8421895, 8.800049 ], [ -75.841037, 8.8004944 ], [ -75.8406293, 8.8008443 ], [ -75.8402968, 8.8014486 ], [ -75.8401895, 8.8017985 ], [ -75.8408439, 8.802318 ], [ -75.8406508, 8.8028482 ], [ -75.8402217, 8.8027634 ], [ -75.8386445, 8.8049581 ], [ -75.8382154, 8.8066862 ], [ -75.8392561, 8.8063576 ], [ -75.8396101, 8.8073436 ], [ -75.8393097, 8.8082342 ], [ -75.8395405, 8.8083132 ], [ -75.8420348, 8.8091672 ], [ -75.8435369, 8.8107787 ], [ -75.8446527, 8.8100578 ], [ -75.8493734, 8.8114043 ], [ -75.8498776, 8.8100366 ], [ -75.8546305, 8.8117329 ], [ -75.8549094, 8.8108423 ], [ -75.8588898, 8.8115633 ], [ -75.8596945, 8.8102062 ], [ -75.8601987, 8.8092308 ], [ -75.8616312, 8.809296 ], [ -75.8618295, 8.809305 ], [ -75.8617652, 8.8085522 ], [ -75.8615935, 8.8078631 ], [ -75.8610571, 8.8068029 ], [ -75.8603275, 8.8055412 ], [ -75.8592653, 8.803866 ], [ -75.8590722, 8.8032723 ], [ -75.8588147, 8.8022756 ], [ -75.8586645, 8.8015017 ], [ -75.8588576, 8.8005262 ], [ -75.8591151, 8.7998583 ], [ -75.8595979, 8.7991161 ], [ -75.8610785, 8.79725 ], [ -75.8619905, 8.7960943 ], [ -75.8627663, 8.7951404 ], [ -75.8638573, 8.7930726 ], [ -75.8648229, 8.7913973 ], [ -75.8658529, 8.7896585 ], [ -75.8665824, 8.7887466 ], [ -75.8680845, 8.7877924 ], [ -75.8697582, 8.7868169 ], [ -75.8706915, 8.7860535 ], [ -75.8716571, 8.7852795 ], [ -75.8720863, 8.7847069 ], [ -75.8723223, 8.7841662 ], [ -75.8725369, 8.78353 ], [ -75.8725906, 8.7826499 ], [ -75.8725262, 8.7818123 ], [ -75.8722794, 8.7806672 ], [ -75.8718288, 8.7793948 ], [ -75.8710134, 8.7775604 ], [ -75.8703268, 8.7759169 ], [ -75.8698118, 8.774284 ], [ -75.8694685, 8.7728738 ], [ -75.8692861, 8.7719725 ], [ -75.8692324, 8.770891 ], [ -75.8692968, 8.769714 ], [ -75.8694309, 8.7692209 ], [ -75.8695972, 8.7687968 ], [ -75.8702463, 8.7685264 ], [ -75.8709169, 8.768325 ], [ -75.8720756, 8.7680493 ], [ -75.8731485, 8.7680705 ], [ -75.8739853, 8.7686007 ], [ -75.8747149, 8.7693005 ], [ -75.8756376, 8.7702548 ], [ -75.8767104, 8.7710394 ], [ -75.8774615, 8.7714212 ], [ -75.87847, 8.7718241 ], [ -75.8792854, 8.7719301 ], [ -75.8798943, 8.7718789 ], [ -75.8800256, 8.7725239 ], [ -75.8807659, 8.7734358 ], [ -75.8812702, 8.7742946 ], [ -75.8820641, 8.7769773 ], [ -75.8824182, 8.779363 ], [ -75.8830297, 8.783689 ], [ -75.8851218, 8.7827878 ], [ -75.8857656, 8.7833285 ], [ -75.8883619, 8.7795326 ], [ -75.8905828, 8.7765849 ], [ -75.8902288, 8.7756307 ], [ -75.8900142, 8.7747506 ], [ -75.8899605, 8.7739341 ], [ -75.8900571, 8.7730435 ], [ -75.8903253, 8.7722164 ], [ -75.8910442, 8.7704774 ], [ -75.8918019, 8.7686688 ], [ -75.894333, 8.7710119 ], [ -75.8961725, 8.7727148 ], [ -75.9011507, 8.7690884 ], [ -75.9047985, 8.7650379 ], [ -75.9092188, 8.7598845 ], [ -75.9120083, 8.7571276 ], [ -75.9171153, 8.7531405 ] ] ], [ [ [ -75.8495021, 8.7515181 ], [ -75.8489764, 8.7505001 ], [ -75.8486974, 8.7502032 ], [ -75.8483112, 8.7500442 ], [ -75.8470988, 8.7499699 ], [ -75.8469915, 8.7495564 ], [ -75.8454681, 8.7497579 ], [ -75.8454681, 8.7499593 ], [ -75.843848, 8.7497048 ], [ -75.8435047, 8.7508713 ], [ -75.8430648, 8.7507758 ], [ -75.8427751, 8.7508183 ], [ -75.841831, 8.7504895 ], [ -75.8411443, 8.7504047 ], [ -75.839932, 8.7506486 ], [ -75.839771, 8.7516878 ], [ -75.8407259, 8.7517938 ], [ -75.8408761, 8.7519529 ], [ -75.8415091, 8.7519317 ], [ -75.8407903, 8.7540418 ], [ -75.8461547, 8.7551552 ], [ -75.847646, 8.7544024 ], [ -75.8485258, 8.753957 ], [ -75.8470774, 8.7528224 ], [ -75.8467662, 8.7529178 ], [ -75.8463585, 8.7530663 ], [ -75.8456719, 8.7530027 ], [ -75.8453393, 8.752833 ], [ -75.8477748, 8.7504683 ], [ -75.8484829, 8.7508819 ], [ -75.8490515, 8.7513166 ], [ -75.8495021, 8.7515181 ] ] ] ] } }
]
}
